GOES 1 (SMS-C) [-]      
1 08366U 75100A   23007.77469131 -.00000159  00000+0  00000+0 0  9990
2 08366   7.7797 293.1609 0002444 309.3107  54.1316  1.00237377172470
GOES 2 [-]              
1 10061U 77048A   23008.59135542 -.00000298  00000+0  00000+0 0  9999
2 10061   9.3843 304.9459 0012348  24.4288 129.0211  0.99400438111036
GOES 3 [-]              
1 10953U 78062A   23007.15882802 -.00000227  00000+0  00000+0 0  9997
2 10953   9.7336 309.5997 0000635 147.0031  43.0662  0.99364763116040
GOES 4 [-]              
1 11964U 80074A   23008.20351279 -.00000193  00000+0  00000+0 0  9994
2 11964  10.7060 313.4209 0032104  77.4412  94.1763  0.99230410115166
GOES 5 [-]              
1 12472U 81049A   23007.86855025 -.00000270  00000+0  00000+0 0  9997
2 12472  11.6044 324.9421 0000896 261.3953 126.1469  1.00259125110254
GOES 6 [-]              
1 14050U 83041A   23007.32487139 -.00000234  00000+0  00000+0 0  9993
2 14050  12.1946 330.2976 0002706 160.0594  14.4404  1.00245965203414
GOES 7 [-]              
1 17561U 87022A   23007.74780733 -.00000246  00000+0  00000+0 0  9991
2 17561  14.0673 346.8949 0004157  56.0822 306.2844  0.99907042114414
GOES 8 [-]              
1 23051U 94022A   23007.71875134  .00000032  00000+0  00000+0 0  9999
2 23051  13.3501  22.7519 0004295  19.5790  40.2295  0.98902369111701
GOES 9 [-]              
1 23581U 95025A   23007.56993764 -.00000014  00000+0  00000+0 0  9995
2 23581  12.8457  23.1587 0004445 120.4647  74.2639  0.98798018100344
GOES 10 [-]             
1 24786U 97019A   23007.82650868 -.00000187  00000+0  00000+0 0  9993
2 24786  11.6510  29.4129 0027680 208.0850 342.7741  0.99127836 93618
GOES 11 [-]             
1 26352U 00022A   23006.96351337 -.00000221  00000+0  00000+0 0  9994
2 26352   9.1149  57.6931 0002528 218.3131 163.0809  0.99045202 40025
GOES 12 [-]             
1 26871U 01031A   23007.45952244 -.00000249  00000+0  00000+0 0  9990
2 26871   9.8834  46.8370 0005015 306.3275 245.3781  0.99139121 78306
EWS-G1 (GOES 13) [+]    
1 29155U 06018A   23008.51211604  .00000048  00000+0  00000+0 0  9990
2 29155   1.1043  93.0117 0005298 162.2206  98.6504  1.00265140 60914
GOES 14 [B]             
1 35491U 09033A   23008.43088307 -.00000080  00000+0  00000+0 0  9990
2 35491   0.0990 242.2152 0017407 346.1289 290.1354  1.00270025 49567
GOES 15 [B]             
1 36411U 10008A   23008.44499035  .00000067  00000+0  00000+0 0  9996
2 36411   0.0541 291.6078 0003077 267.6953 300.6720  1.00265388 47063
GOES 16 [+]             
1 41866U 16071A   23008.45553730 -.00000235  00000+0  00000+0 0  9994
2 41866   0.0754 247.7859 0001029  70.6524 238.0859  1.00270303 22523
GOES 17 [+]             
1 43226U 18022A   23008.43591262  .00000111  00000+0  00000+0 0  9996
2 43226   0.0033 315.1978 0000543 350.9182 181.1877  1.00272716 17848
GOES 18 [+]             
1 51850U 22021A   23007.79750510  .00000109  00000+0  00000+0 0  9990
2 51850   0.0091 273.9665 0000967   4.0073 339.2774  1.00272787  3209
